GLOBALSTAR M024         
1 25883U 99043A   25243.20917479 -.00000007  00000+0  20501-2 0  9993
2 25883  51.9979 211.3456 0001144 233.8914 226.3569 11.10164469123192
GLOBALSTAR M027         
1 25884U 99043B   25243.44039637 -.00000086  00000+0 -85056-3 0  9996
2 25884  52.0211 290.9437 0021644 113.3173 246.9900 11.04372021149555
GLOBALSTAR M054         
1 25885U 99043C   25243.58848750 -.00000105  00000+0 -85022-3 0  9991
2 25885  52.0156  45.2532 0004649 309.0748 127.6732 11.39219930127640
GLOBALSTAR M053         
1 25886U 99043D   25243.58343734 -.00000078  00000+0 -28180-3 0  9995
2 25886  52.0025 356.5455 0003339 199.6621 173.2408 11.27666190127958
GLOBALSTAR M058         
1 25907U 99049A   25243.53473843 -.00000055  00000+0  39527-3 0  9996
2 25907  51.9924 267.9799 0002294  59.8700 300.2362 11.93202245550533
GLOBALSTAR M050         
1 25908U 99049B   25243.48938270  .00000018  00000+0  11983-2 0  9994
2 25908  51.9975 270.1507 0009208 181.2333 357.9380 12.07455949157288
GLOBALSTAR M033         
1 25909U 99049C   25243.13327739 -.00000106  00000+0 -13760-3 0  9995
2 25909  51.9904 137.7803 0014538  57.5107 302.7144 12.20297749544894
GLOBALSTAR M055         
1 25910U 99049D   25243.45966935 -.00000073  00000+0  18520-3 0  9990
2 25910  52.0013 143.9453 0006663 293.1449  66.8701 12.29431642177548
